{
  "type": "FeatureCollection",
  "features": [
    {
      "type": "Feature",
      "properties": {
        "norad_id": 27954,
        "name": "GALAXY 13 (HORIZONS-1)",
        "group": "intelsat",
        "lat": -0.19460605150976484,
        "lon": 72.91715143493565,
        "alt_km": 35797.02394585989,
        "timestamp": "2025-12-19T08:58:49.004717+00:00",
        "meta_object_name": "GALAXY 13 (HORIZONS-1)",
        "meta_object_id": "2003-044A",
        "meta_epoch": "2025-12-18T17:43:08.755392",
        "meta_mean_motion": 1.00269349,
        "meta_eccentricity": 0.00024576,
        "meta_inclination": 0.9518,
        "meta_ra_of_asc_node": 86.3931,
        "meta_arg_of_pericenter": 174.6502,
        "meta_mean_anomaly": 302.3385,
        "meta_ephemeris_type": 0,
        "meta_classification_type": "U",
        "meta_norad_cat_id": 27954,
        "meta_element_set_no": 999,
        "meta_rev_at_epoch": 4476,
        "meta_bstar": 0,
        "meta_mean_motion_dot": 1.57e-06,
        "meta_mean_motion_ddot": 0,
        "tle_line1": "1 27954U 03044A   25352.73829578  .00000157  00000+0  00000+0 0  9995",
        "tle_line2": "2 27954   0.9518  86.3931 0002457 174.6502 302.3385  1.00269349 44764"
      },
      "geometry": {
        "type": "Point",
        "coordinates": [
          72.91715143493565,
          -0.19460605150976484
        ]
      }
    },
    {
      "type": "Feature",
      "properties": {
        "norad_id": 28358,
        "name": "INTELSAT 10-02",
        "group": "intelsat",
        "lat": -0.00655364472223657,
        "lon": -138.05022751887222,
        "alt_km": 35785.118435353805,
        "timestamp": "2025-12-19T08:58:49.004729+00:00",
        "meta_object_name": "INTELSAT 10-02",
        "meta_object_id": "2004-022A",
        "meta_epoch": "2025-12-18T20:08:22.788096",
        "meta_mean_motion": 1.00272833,
        "meta_eccentricity": 8.965e-05,
        "meta_inclination": 0.0192,
        "meta_ra_of_asc_node": 66.3622,
        "meta_arg_of_pericenter": 235.9772,
        "meta_mean_anomaly": 86.4926,
        "meta_ephemeris_type": 0,
        "meta_classification_type": "U",
        "meta_norad_cat_id": 28358,
        "meta_element_set_no": 999,
        "meta_rev_at_epoch": 7874,
        "meta_bstar": 0,
        "meta_mean_motion_dot": 1.5e-07,
        "meta_mean_motion_ddot": 0,
        "tle_line1": "1 28358U 04022A   25352.83915264  .00000015  00000+0  00000+0 0  9993",
        "tle_line2": "2 28358   0.0192  66.3622 0000896 235.9772  86.4926  1.00272833 78740"
      },
      "geometry": {
        "type": "Point",
        "coordinates": [
          -138.05022751887222,
          -0.00655364472223657
        ]
      }
    },
    {
      "type": "Feature",
      "properties": {
        "norad_id": 28626,
        "name": "XM-3 (RHYTHM)",
        "group": "intelsat",
        "lat": -0.1505807803905669,
        "lon": -54.32211469215751,
        "alt_km": 36156.164932089356,
        "timestamp": "2025-12-19T08:58:49.004741+00:00",
        "meta_object_name": "XM-3 (RHYTHM)",
        "meta_object_id": "2005-008A",
        "meta_epoch": "2025-12-18T22:15:33.109056",
        "meta_mean_motion": 0.98950209,
        "meta_eccentricity": 0.00018618,
        "meta_inclination": 0.1901,
        "meta_ra_of_asc_node": 81.9252,
        "meta_arg_of_pericenter": 278.2216,
        "meta_mean_anomaly": 146.4282,
        "meta_ephemeris_type": 0,
        "meta_classification_type": "U",
        "meta_norad_cat_id": 28626,
        "meta_element_set_no": 999,
        "meta_rev_at_epoch": 4081,
        "meta_bstar": 0,
        "meta_mean_motion_dot": 4.3e-07,
        "meta_mean_motion_ddot": 0,
        "tle_line1": "1 28626U 05008A   25352.92746654  .00000043  00000+0  00000+0 0  9992",
        "tle_line2": "2 28626   0.1901  81.9252 0001861 278.2216 146.4282  0.98950209 40810"
      },
      "geometry": {
        "type": "Point",
        "coordinates": [
          -54.32211469215751,
          -0.1505807803905669
        ]
      }
    },
    {
      "type": "Feature",
      "properties": {
        "norad_id": 28659,
        "name": "DIRECTV 8",
        "group": "intelsat",
        "lat": 0.024450531564535857,
        "lon": 103.87507520927656,
        "alt_km": 35798.162655002925,
        "timestamp": "2025-12-19T08:58:49.004753+00:00",
        "meta_object_name": "DIRECTV 8",
        "meta_object_id": "2005-019A",
        "meta_epoch": "2025-12-18T23:00:06.340608",
        "meta_mean_motion": 1.00271061,
        "meta_eccentricity": 0.0002824,
        "meta_inclination": 0.0011,
        "meta_ra_of_asc_node": 23.8533,
        "meta_arg_of_pericenter": 254.1308,
        "meta_mean_anomaly": 35.8187,
        "meta_ephemeris_type": 0,
        "meta_classification_type": "U",
        "meta_norad_cat_id": 28659,
        "meta_element_set_no": 999,
        "meta_rev_at_epoch": 7526,
        "meta_bstar": 0,
        "meta_mean_motion_dot": 2.6e-07,
        "meta_mean_motion_ddot": 0,
        "tle_line1": "1 28659U 05019A   25352.95840672  .00000026  00000+0  00000+0 0  9999",
        "tle_line2": "2 28659   0.0011  23.8533 0002824 254.1308  35.8187  1.00271061 75267"
      },
      "geometry": {
        "type": "Point",
        "coordinates": [
          103.87507520927656,
          0.024450531564535857
        ]
      }
    },
    {
      "type": "Feature",
      "properties": {
        "norad_id": 28702,
        "name": "GALAXY 28 (G-28)",
        "group": "intelsat",
        "lat": 2.283468118245545,
        "lon": 134.17621999167744,
        "alt_km": 35795.40795463001,
        "timestamp": "2025-12-19T08:58:49.004764+00:00",
        "meta_object_name": "GALAXY 28 (G-28)",
        "meta_object_id": "2005-022A",
        "meta_epoch": "2025-12-18T19:43:17.690592",
        "meta_mean_motion": 1.00271015,
        "meta_eccentricity": 0.0002935,
        "meta_inclination": 2.835,
        "meta_ra_of_asc_node": 81.2126,
        "meta_arg_of_pericenter": 191.9736,
        "meta_mean_anomaly": 21.6294,
        "meta_ephemeris_type": 0,
        "meta_classification_type": "U",
        "meta_norad_cat_id": 28702,
        "meta_element_set_no": 999,
        "meta_rev_at_epoch": 5016,
        "meta_bstar": 0,
        "meta_mean_motion_dot": -1.65e-06,
        "meta_mean_motion_ddot": 0,
        "tle_line1": "1 28702U 05022A   25352.82173253 -.00000165  00000+0  00000+0 0  9997",
        "tle_line2": "2 28702   2.8350  81.2126 0002935 191.9736  21.6294  1.00271015 50167"
      },
      "geometry": {
        "type": "Point",
        "coordinates": [
          134.17621999167744,
          2.283468118245545
        ]
      }
    },
    {
      "type": "Feature",
      "properties": {
        "norad_id": 29236,
        "name": "GALAXY 16 (G-16)",
        "group": "intelsat",
        "lat": 0.004194769906599121,
        "lon": 123.89644175474606,
        "alt_km": 35794.3191230122,
        "timestamp": "2025-12-19T08:58:49.004776+00:00",
        "meta_object_name": "GALAXY 16 (G-16)",
        "meta_object_id": "2006-023A",
        "meta_epoch": "2025-12-18T23:05:50.790624",
        "meta_mean_motion": 1.00271428,
        "meta_eccentricity": 0.00024656,
        "meta_inclination": 0.0212,
        "meta_ra_of_asc_node": 236.7094,
        "meta_arg_of_pericenter": 28.2257,
        "meta_mean_anomaly": 70.3422,
        "meta_ephemeris_type": 0,
        "meta_classification_type": "U",
        "meta_norad_cat_id": 29236,
        "meta_element_set_no": 999,
        "meta_rev_at_epoch": 7116,
        "meta_bstar": 0,
        "meta_mean_motion_dot": -1.02e-06,
        "meta_mean_motion_ddot": 0,
        "tle_line1": "1 29236U 06023A   25352.96239341 -.00000102  00000+0  00000+0 0  9999",
        "tle_line2": "2 29236   0.0212 236.7094 0002465  28.2257  70.3422  1.00271428 71161"
      },
      "geometry": {
        "type": "Point",
        "coordinates": [
          123.89644175474606,
          0.004194769906599121
        ]
      }
    },
    {
      "type": "Feature",
      "properties": {
        "norad_id": 29494,
        "name": "DIRECTV 9S",
        "group": "intelsat",
        "lat": 1.241039594593633,
        "lon": 121.6768083059592,
        "alt_km": 35796.42746341105,
        "timestamp": "2025-12-19T08:58:49.004788+00:00",
        "meta_object_name": "DIRECTV 9S",
        "meta_object_id": "2006-043A",
        "meta_epoch": "2025-12-18T23:05:13.350912",
        "meta_mean_motion": 1.00271791,
        "meta_eccentricity": 0.00028112,
        "meta_inclination": 1.9554,
        "meta_ra_of_asc_node": 83.1482,
        "meta_arg_of_pericenter": 190.4314,
        "meta_mean_anomaly": 59.3322,
        "meta_ephemeris_type": 0,
        "meta_classification_type": "U",
        "meta_norad_cat_id": 29494,
        "meta_element_set_no": 999,
        "meta_rev_at_epoch": 4957,
        "meta_bstar": 0,
        "meta_mean_motion_dot": -9e-07,
        "meta_mean_motion_ddot": 0,
        "tle_line1": "1 29494U 06043A   25352.96196008 -.00000090  00000+0  00000+0 0  9995",
        "tle_line2": "2 29494   1.9554  83.1482 0002811 190.4314  59.3322  1.00271791 49571"
      },
      "geometry": {
        "type": "Point",
        "coordinates": [
          121.6768083059592,
          1.241039594593633
        ]
      }
    }
  ]
}